OBJECT_NAME,OBJECT_ID,EPOCH,MEAN_MOTION,ECCENTRICITY,INCLINATION,RA_OF_ASC_NODE,ARG_OF_PERICENTER,MEAN_ANOMALY,EPHEMERIS_TYPE,CLASSIFICATION_TYPE,NORAD_CAT_ID,ELEMENT_SET_NO,REV_AT_EPOCH,BSTAR,MEAN_MOTION_DOT,MEAN_MOTION_DDOT
JILIN-1 GAOFEN 03D15,2022-019R,2026-05-09T19:17:43.548864,15.90105337,.0005178,97.3642,225.0462,234.5667,125.5122,0,U,51839,999,23400,.7947E-3,.237131E-2,.22544E-4
JILIN-1 GAOFEN 03D12,2022-019T,2026-05-09T20:16:12.578592,15.91120671,.0005619,97.3603,225.0294,222.2965,137.7875,0,U,51841,999,23401,.83171E-3,.26139E-2,.27321E-4
2022-023F,2022-023F,2026-05-09T20:51:48.605184,15.17763976,.0127604,63.4484,43.7409,344.0325,15.6780,0,U,51951,999,23189,.69523E-3,.17267E-3,0
MERIDIAN 10,2022-030A,2026-05-09T02:10:29.497152,2.00616584,.677338,62.6773,144.9880,272.8849,17.7301,0,U,52145,999,3024,0,.246E-5,0
OMNI-L1,2022-033A,2026-05-09T18:41:21.107328,14.82605595,.0006362,97.8395,209.7057,60.0686,300.1159,0,U,52157,999,22176,.18083E-3,.1404E-4,0
ENMAP,2022-033C,2026-05-09T20:04:28.467840,14.74953753,.0001479,97.9781,212.6301,85.4208,274.7170,0,U,52159,999,22100,-.22212E-4,-.199E-5,0
ARCSAT-1,2022-033E,2026-05-09T18:57:46.932192,15.52672633,.0004152,97.2730,221.5245,358.1615,1.9622,0,U,52161,999,22974,.166E-3,.10135E-3,0
GLOBAL-18,2022-034B,2026-05-09T06:12:34.815456,15.44678355,.00057683,52.9822,82.4443,116.9091,243.2504,0,U,52196,999,23094,.37285482E-3,.17289E-3,0
GAOFEN-3 03,2022-035A,2026-05-09T20:43:42.471264,14.42217886,.0001058,98.4080,138.9989,71.2135,288.9169,0,U,52200,999,21532,-.42257E-4,-.183E-5,0
DAQI-1,2022-039A,2026-05-09T20:12:52.267104,14.57654034,.0004414,98.1467,69.4916,31.4832,328.6630,0,U,52257,999,21635,.37567E-4,.126E-5,0
BRO-6,2022-047AE,2026-05-09T20:05:27.255264,15.48279209,.0004944,97.3390,220.2296,193.7962,166.3154,0,U,52422,999,22521,.45869E-3,.24162E-3,0
JILIN-1 GAOFEN 3D27,2022-048B,2026-05-09T19:32:41.536032,15.67894912,.0005496,97.5667,240.5392,178.3401,181.7879,0,U,52444,999,22345,.55628E-3,.61509E-3,0
JILIN-1 GAOFEN 3D28,2022-048C,2026-05-09T19:25:48.360864,15.69924291,.0004198,97.5608,240.5659,193.4877,166.6273,0,U,52445,999,22349,.5682E-3,.68305E-3,0
VIGORIDE-3,2022-057AE,2026-05-09T19:37:35.640768,15.26875862,.0007105,97.6550,268.8010,256.4249,103.6198,0,U,52760,999,21930,.15447E-3,.4002E-4,0
ION SCV-006,2022-057AF,2026-05-09T08:44:39.637824,15.44399595,.0016411,97.6055,276.1655,252.8490,107.0961,0,U,52761,999,22012,.18657E-3,.8565E-4,0
SHERPA-AC1,2022-057AH,2026-05-09T10:25:39.508320,15.35716826,.0006781,97.6640,277.0753,222.3709,137.7011,0,U,52763,999,21975,.18293E-3,.6271E-4,0
OMNI-L2,2022-057AR,2026-05-09T18:06:36.774720,14.81266728,.0008386,97.4733,194.6943,92.1822,268.0352,0,U,52771,999,21470,.13245E-3,.986E-5,0
STEP CUBE LAB-II,2022-065D,2026-05-09T20:13:30.027360,14.63241701,.0009393,98.2177,273.8748,138.7472,221.4441,0,U,52897,999,20589,.15155E-3,.733E-5,0
RANDEV,2022-065E,2026-05-09T20:29:35.945664,14.63626781,.00087,98.2164,274.2205,138.5581,221.6283,0,U,52898,999,20564,.14839E-3,.723E-5,0
SNUGLITE-II,2022-065F,2026-05-09T19:59:56.370048,14.64274692,.0008408,98.2151,274.7447,137.8319,222.3531,0,U,52899,999,20538,.14412E-3,.712E-5,0
MIMAN,2022-065G,2026-05-09T15:34:06.835872,14.61800219,.000848,98.2208,272.3376,139.8518,220.3311,0,U,52900,999,20481,.97635E-4,.44E-5,0
STARLINK-4362,2022-077A,2026-05-09T10:53:40.771968,15.05661548,.0001274,97.5156,309.8240,97.8159,262.3213,0,U,53043,999,21005,-.60626E-4,-.934E-5,0
LARES-2,2022-080A,2026-05-07T03:52:33.796992,6.38965197,.0005357,70.1704,319.3995,343.8104,16.2342,0,U,53105,999,8904,0,-.8E-7,0
GREENCUBE (IO-117),2022-080E,2026-05-09T10:20:24.023040,6.42583325,.0008865,70.1440,311.7298,298.7662,61.2107,0,U,53109,999,8957,0,-.3E-7,0
STARLINK-4410,2022-084R,2026-05-09T20:00:04.000032,15.14511516,.0000552,97.6010,190.4369,95.1707,164.8916,0,U,53204,999,576,-.17493E-2,-.32114E-3,0
COSMOS 2558,2022-089A,2026-05-09T19:27:24.976800,15.68373238,.0002588,97.2241,232.5326,179.2206,180.9060,0,U,53323,999,21180,.53422E-3,.60181E-3,0
TECMS,2022-090A,2026-05-09T19:32:07.878048,15.21419854,.000205,97.3151,199.0045,358.1088,2.0140,0,U,53346,999,20897,.12379E-3,.2711E-4,0
