JILIN-1 GAOFEN 03D15    
1 51839U 22019R   26129.80397626  .00237131  22544-4  79470-3 0  9999
2 51839  97.3642 225.0462 0005178 234.5667 125.5122 15.90105337234005
JILIN-1 GAOFEN 03D12    
1 51841U 22019T   26129.84459003  .00261390  27321-4  83171-3 0  9999
2 51841  97.3603 225.0294 0005619 222.2965 137.7875 15.91120671234013
2022-023F               
1 51951U 22023F   26129.86931256  .00017267  00000+0  69523-3 0  9990
2 51951  63.4484  43.7409 0127604 344.0325  15.6780 15.17763976231892
MERIDIAN 10             
1 52145U 22030A   26129.09061918  .00000246  00000+0  00000+0 0  9998
2 52145  62.6773 144.9880 6773380 272.8849  17.7301  2.00616584 30248
OMNI-L1                 
1 52157U 22033A   26129.77871652  .00001404  00000+0  18083-3 0  9994
2 52157  97.8395 209.7057 0006362  60.0686 300.1159 14.82605595221768
ENMAP                   
1 52159U 22033C   26129.83644060 -.00000199  00000+0 -22212-4 0  9996
2 52159  97.9781 212.6301 0001479  85.4208 274.7170 14.74953753221009
ARCSAT-1                
1 52161U 22033E   26129.79012653  .00010135  00000+0  16600-3 0  9993
2 52161  97.2730 221.5245 0004152 358.1615   1.9622 15.52672633229741
GLOBAL-18               
1 52196U 22034B   26129.25873629  .00017289  00000+0  37285-3 0  9990
2 52196  52.9822  82.4443 0005768 116.9091 243.2504 15.44678355230947
GAOFEN-3 03             
1 52200U 22035A   26129.86368601 -.00000183  00000+0 -42257-4 0  9996
2 52200  98.4080 138.9989 0001058  71.2135 288.9169 14.42217886215329
DAQI-1                  
1 52257U 22039A   26129.84227161  .00000126  00000+0  37567-4 0  9998
2 52257  98.1467  69.4916 0004414  31.4832 328.6630 14.57654034216351
BRO-6                   
1 52422U 22047AE  26129.83712101  .00024162  00000+0  45869-3 0  9992
2 52422  97.3390 220.2296 0004944 193.7962 166.3154 15.48279209225214
JILIN-1 GAOFEN 3D27     
1 52444U 22048B   26129.81436963  .00061509  00000+0  55628-3 0  9994
2 52444  97.5667 240.5392 0005496 178.3401 181.7879 15.67894912223453
JILIN-1 GAOFEN 3D28     
1 52445U 22048C   26129.80958751  .00068305  00000+0  56820-3 0  9994
2 52445  97.5608 240.5659 0004198 193.4877 166.6273 15.69924291223498
VIGORIDE-3              
1 52760U 22057AE  26129.81777362  .00004002  00000+0  15447-3 0  9996
2 52760  97.6550 268.8010 0007105 256.4249 103.6198 15.26875862219307
ION SCV-006             
1 52761U 22057AF  26129.36434766  .00008565  00000+0  18657-3 0  9999
2 52761  97.6055 276.1655 0016411 252.8490 107.0961 15.44399595220125
SHERPA-AC1              
1 52763U 22057AH  26129.43448505  .00006271  00000+0  18293-3 0  9993
2 52763  97.6640 277.0753 0006781 222.3709 137.7011 15.35716826219753
OMNI-L2                 
1 52771U 22057AR  26129.75459230  .00000986  00000+0  13245-3 0  9993
2 52771  97.4733 194.6943 0008386  92.1822 268.0352 14.81266728214707
STEP CUBE LAB-II        
1 52897U 22065D   26129.84270865  .00000733  00000+0  15155-3 0  9998
2 52897  98.2177 273.8748 0009393 138.7472 221.4441 14.63241701205893
RANDEV                  
1 52898U 22065E   26129.85388826  .00000723  00000+0  14839-3 0  9994
2 52898  98.2164 274.2205 0008700 138.5581 221.6283 14.63626781205647
SNUGLITE-II             
1 52899U 22065F   26129.83329132  .00000712  00000+0  14412-3 0  9993
2 52899  98.2151 274.7447 0008408 137.8319 222.3531 14.64274692205389
MIMAN                   
1 52900U 22065G   26129.64869023  .00000440  00000+0  97635-4 0  9990
2 52900  98.2208 272.3376 0008480 139.8518 220.3311 14.61800219204811
STARLINK-4362           
1 53043U 22077A   26129.45394412 -.00000934  00000+0 -60626-4 0  9996
2 53043  97.5156 309.8240 0001274  97.8159 262.3213 15.05661548210057
LARES-2                 
1 53105U 22080A   26127.16150228 -.00000008  00000+0  00000+0 0  9996
2 53105  70.1704 319.3995 0005357 343.8104  16.2342  6.38965197 89040
GREENCUBE (IO-117)      
1 53109U 22080E   26129.43083360 -.00000003  00000+0  00000+0 0  9999
2 53109  70.1440 311.7298 0008865 298.7662  61.2107  6.42583325 89578
STARLINK-4410           
1 53204U 22084R   26129.83337963 -.00032114  00000+0 -17493-2 0  9990
2 53204  97.6010 190.4369 0000552  95.1707 164.8916 15.14511516  5765
COSMOS 2558             
1 53323U 22089A   26129.81070575  .00060181  00000+0  53422-3 0  9994
2 53323  97.2241 232.5326 0002588 179.2206 180.9060 15.68373238211808
TECMS                   
1 53346U 22090A   26129.81398007  .00002711  00000+0  12379-3 0  9995
2 53346  97.3151 199.0045 0002050 358.1088   2.0140 15.21419854208970
